0 METEOR 2-8 DEB
1 36344U 82025AE  13287.02412494  .00002912  00000-0  14435-2 0   987
2 36344 082.5277 031.6293 0027564 101.4498 259.6135 14.16735451444637
0 METEOR 2-8 DEB
1 36344U 82025AE  13294.58084687  .00004060  00000-0  20138-2 0   999
2 36344 082.5309 025.2702 0026530 088.9563 272.0475 14.16807160445703
